STARLINK-4437           
1 53506U 22099AT  26068.91312148 -.00001903  00000+0 -12771-3 0  9997
2 53506  97.6026 191.3997 0000573 130.4613 229.6664 15.05661883196085
MUSAT-2                 
1 59099U 24043B   26068.91945897  .00010059  00000+0  67214-3 0  9996
2 59099  97.8438 205.4399 0006495 314.3478  45.7216 15.07177436110131
